SL-8 R/B                
1 15483U 85006B   26183.66255064  .00000182  00000+0  69018-4 0  9992
2 15483  74.0454  49.5864 0019213 294.4103  85.9794 14.37840790170555
SL-12 R/B(2)            
1 15772U 85042D   26183.58210588  .00000005  00000+0  23968-4 0  9994
2 15772  71.1062 204.9905 0037010 304.7365 190.5505 14.22008844130720
SL-14 R/B               
1 15945U 85069B   26183.31461924  .00000506  00000+0  54189-4 0  9993
2 15945  82.5273 277.1394 0019088 168.0777 192.0896 14.86527461189869
SL-16 R/B               
1 16182U 85097B   26183.45407028 -.00000073  00000+0 -12624-4 0  9997
2 16182  71.0031 258.9370 0005259  77.5365   8.5098 14.16614786103480
SL-14 R/B               
1 16496U 86006B   26183.39441041  .00000556  00000+0  56425-4 0  9993
2 16496  82.5272 151.8024 0074753 252.0243 107.2817 14.86959695166257
COSMOS 1743             
1 16719U 86034A   26183.40291632  .00056675  00000+0  50144-3 0  9997
2 16719  82.5281 312.5379 0004805 217.9753 142.1170 15.68399628198172
SL-14 R/B               
1 16792U 86046B   26183.44160013  .00000508  00000+0  55579-4 0  9995
2 16792  82.4828 331.7602 0022394 205.3565 154.6554 14.85682514143447
SL-14 R/B               
1 16882U 86055B   26183.56071881  .00000442  00000+0  48078-4 0  9995
2 16882  82.5198  18.6774 0017750 315.5694  66.5484 14.85733401136421
AJISAI (EGS)            
1 16908U 86061A   26183.63472574 -.00000087  00000+0  71701-4 0  9998
2 16908  50.0090  99.8942 0011131 219.8413 209.7427 12.44516677482318
SL-14 R/B               
1 17567U 87024B   26183.43329540  .00000471  00000+0  50814-4 0  9990
2 17567  82.5285 344.9185 0016887 238.1920 121.7653 14.86224010105174
COSMOS 1833             
1 17589U 87027A   26183.18644635  .00000265  00000+0  16704-3 0  9994
2 17589  70.9208  85.3424 0023401  30.0922 330.1538 14.13060848 26499
SL-16 R/B               
1 17590U 87027B   26183.60346354  .00000025  00000+0  35947-4 0  9995
2 17590  71.0033  34.3422 0006989 295.6953  64.3448 14.17175047 31625
SL-14 R/B               
1 17912U 87038B   26183.41996983  .00000424  00000+0  46188-4 0  9995
2 17912  82.5003 188.7234 0020202 141.7407 218.5247 14.85454567 96264
COSMOS 1844             
1 17973U 87041A   26183.31060571  .00000376  00000+0  22000-3 0  9992
2 17973  70.8977 152.4063 0032096 213.4900 146.4193 14.14572346 19798
SL-14 R/B               
1 18153U 87055B   26183.57870787  .00000425  00000+0  46082-4 0  9996
2 18153  82.4983 240.7202 0020448 358.1069   2.0066 14.85720977 86997
COSMOS 1867             
1 18187U 87060A   26183.15331883 -.00000030  00000+0  26535-4 0  9996
2 18187  65.0117 346.1443 0016850 282.1411  77.7785 14.31517402 36324
SL-14 R/B               
1 18749U 88001B   26183.44710568  .00000427  00000+0  46496-4 0  9996
2 18749  82.5132  87.4178 0017044 214.8646 145.1456 14.85620057 59068
COSMOS 1933             
1 18958U 88020A   26183.58642451  .00004000  00000+0  19073-3 0  9990
2 18958  82.5136 137.1852 0005078 139.2964 220.8651 15.18816537 67663
SL-3 R/B                
1 19046U 88032B   26183.57288925  .00004773  00000+0  21701-3 0  9991
2 19046  97.5263 166.5993 0025171 188.9584 171.1205 15.20951756 69566
SL-16 R/B               
1 19120U 88039B   26183.41113522  .00000073  00000+0  57165-4 0  9997
2 19120  71.0127 185.9664 0021309 169.8909 190.2649 14.19630970974662
COSMOS 1953             
1 19210U 88050A   26183.32196959  .00008125  00000+0  27648-3 0  9993
2 19210  82.5063  42.7696 0012316  80.1340 280.1290 15.30186907 55307
SL-8 R/B                
1 19257U 88053B   26183.49983378  .00000233  00000+0  83933-4 0  9996
2 19257  74.0475 260.8316 0019307  50.5253 322.9631 14.38973580993116
COSMOS 1975             
1 19573U 88093A   26183.46412341  .00007648  00000+0  26555-3 0  9998
2 19573  82.5189   2.3310 0012391 121.8676 238.3772 15.29526291 36942
SL-14 R/B               
1 19574U 88093B   26183.55122816  .00000464  00000+0  50388-4 0  9995
2 19574  82.5321 294.2211 0021148  22.1651 348.4925 14.85753275 18071
SL-16 R/B               
1 19650U 88102B   26183.61543835  .00000057  00000+0  53113-4 0  9993
2 19650  71.0003 269.6762 0014978 204.0874 155.9550 14.16169454943160
INTERCOSMOS 24          
1 20261U 89080A   26183.50334776  .00000703  00000+0  20095-3 0  9999
2 20261  82.6049  29.6777 1187868  26.3958 339.2942 12.59682968681252
SL-14 R/B               
1 20262U 89080C   26183.44205048  .00000164  00000+0  49807-4 0  9996
2 20262  82.5942  99.5072 1228382 282.4817  64.1806 12.50575986674497
DELTA 1 R/B             
1 20323U 89089B   26183.46225990  .00000360  00000+0  97100-4 0  9990
2 20323  97.0633  12.5760 0070349 119.3340 241.4911 14.50741173912372
ARIANE 40 R/B           
1 20443U 90005H   26183.12362636  .00000257  00000+0  95131-4 0  9992
2 20443  98.2952 240.2750 0009411 214.2475 145.8108 14.39935171909277
DELTA 2 R/B(1)          
1 20453U 90008B   26182.94304548  .00101038  00000+0  67237-3 0  9997
2 20453  35.6000 136.7735 0064180 253.2131 106.1561 15.71224893944029
