OBJECT_NAME,OBJECT_ID,EPOCH,MEAN_MOTION,ECCENTRICITY,INCLINATION,RA_OF_ASC_NODE,ARG_OF_PERICENTER,MEAN_ANOMALY,EPHEMERIS_TYPE,CLASSIFICATION_TYPE,NORAD_CAT_ID,ELEMENT_SET_NO,REV_AT_EPOCH,BSTAR,MEAN_MOTION_DOT,MEAN_MOTION_DDOT
SL-8 R/B,1985-006B,2026-07-02T15:54:04.375296,14.37840790,.00192133,74.0454,49.5864,294.4103,85.9794,0,U,15483,999,17055,.69017534E-4,.182E-5,0
SL-12 R/B(2),1985-042D,2026-07-02T13:58:13.948032,14.22008844,.00370103,71.1062,204.9905,304.7365,190.5505,0,U,15772,999,13072,.23967531E-4,.5E-7,0
SL-14 R/B,1985-069B,2026-07-02T07:33:03.102336,14.86527461,.00190886,82.5273,277.1394,168.0777,192.0896,0,U,15945,999,18986,.54188721E-4,.506E-5,0
SL-16 R/B,1985-097B,2026-07-02T10:53:51.672192,14.16614786,.00052595,71.0031,258.9370,77.5365,8.5098,0,U,16182,999,10348,-.12623925E-4,-.73E-6,0
SL-14 R/B,1986-006B,2026-07-02T09:27:57.059424,14.86959695,.0074753,82.5272,151.8024,252.0243,107.2817,0,U,16496,999,16625,.56425333E-4,.556E-5,0
COSMOS 1743,1986-034A,2026-07-02T09:40:11.970048,15.68399628,.00048056,82.5281,312.5379,217.9753,142.1170,0,U,16719,999,19817,.50144354E-3,.56675E-3,0
SL-14 R/B,1986-046B,2026-07-02T10:35:54.251232,14.85682514,.0022394,82.4828,331.7602,205.3565,154.6554,0,U,16792,999,14344,.55579226E-4,.508E-5,0
SL-14 R/B,1986-055B,2026-07-02T13:27:26.105184,14.85733401,.00177507,82.5198,18.6774,315.5694,66.5484,0,U,16882,999,13642,.48077723E-4,.442E-5,0
AJISAI (EGS),1986-061A,2026-07-02T15:14:00.303936,12.44516677,.00111318,50.0090,99.8942,219.8413,209.7427,0,U,16908,999,48231,.71701174E-4,-.87E-6,0
SL-14 R/B,1987-024B,2026-07-02T10:23:56.722560,14.86224010,.00168879,82.5285,344.9185,238.1920,121.7653,0,U,17567,999,10517,.50814027E-4,.471E-5,0
COSMOS 1833,1987-027A,2026-07-02T04:28:28.964640,14.13060848,.0023401,70.9208,85.3424,30.0922,330.1538,0,U,17589,999,2649,.16704076E-3,.265E-5,0
SL-16 R/B,1987-027B,2026-07-02T14:28:59.249856,14.17175047,.00069897,71.0033,34.3422,295.6953,64.3448,0,U,17590,999,3162,.35946793E-4,.25E-6,0
SL-14 R/B,1987-038B,2026-07-02T10:04:45.393312,14.85454567,.00202029,82.5003,188.7234,141.7407,218.5247,0,U,17912,999,9626,.46188198E-4,.424E-5,0
COSMOS 1844,1987-041A,2026-07-02T07:27:16.333344,14.14572346,.0032096,70.8977,152.4063,213.4900,146.4193,0,U,17973,999,1979,.22000457E-3,.376E-5,0
SL-14 R/B,1987-055B,2026-07-02T13:53:20.359968,14.85720977,.00204486,82.4983,240.7202,358.1069,2.0066,0,U,18153,999,8699,.46081966E-4,.425E-5,0
COSMOS 1867,1987-060A,2026-07-02T03:40:46.746912,14.31517402,.00168505,65.0117,346.1443,282.1411,77.7785,0,U,18187,999,3632,.26535452E-4,-.3E-6,0
SL-14 R/B,1988-001B,2026-07-02T10:43:49.930752,14.85620057,.00170445,82.5132,87.4178,214.8646,145.1456,0,U,18749,999,5906,.4649594E-4,.427E-5,0
COSMOS 1933,1988-020A,2026-07-02T14:04:27.077664,15.18816537,.00050783,82.5136,137.1852,139.2964,220.8651,0,U,18958,999,6766,.19072682E-3,.4E-4,0
SL-3 R/B,1988-032B,2026-07-02T13:44:57.631200,15.20951756,.00251719,97.5263,166.5993,188.9584,171.1205,0,U,19046,999,6956,.21700672E-3,.4773E-4,0
SL-16 R/B,1988-039B,2026-07-02T09:52:02.083008,14.19630970,.00213093,71.0127,185.9664,169.8909,190.2649,0,U,19120,999,97466,.57165438E-4,.73E-6,0
COSMOS 1953,1988-050A,2026-07-02T07:43:38.172576,15.30186907,.00123167,82.5063,42.7696,80.1340,280.1290,0,U,19210,999,5530,.27648249E-3,.8125E-4,0
SL-8 R/B,1988-053B,2026-07-02T11:59:45.638592,14.38973580,.00193074,74.0475,260.8316,50.5253,322.9631,0,U,19257,999,99311,.83933194E-4,.233E-5,0
COSMOS 1975,1988-093A,2026-07-02T11:08:20.262624,15.29526291,.00123913,82.5189,2.3310,121.8676,238.3772,0,U,19573,999,3694,.26555102E-3,.7648E-4,0
SL-14 R/B,1988-093B,2026-07-02T13:13:46.113024,14.85753275,.0021148,82.5321,294.2211,22.1651,348.4925,0,U,19574,999,1807,.5038817E-4,.464E-5,0
SL-16 R/B,1988-102B,2026-07-02T14:46:13.873440,14.16169454,.0014978,71.0003,269.6762,204.0874,155.9550,0,U,19650,999,94316,.5311324E-4,.57E-6,0
INTERCOSMOS 24,1989-080A,2026-07-02T12:04:49.246464,12.59682968,.11878681,82.6049,29.6777,26.3958,339.2942,0,U,20261,999,68125,.20094725E-3,.703E-5,0
SL-14 R/B,1989-080C,2026-07-02T10:36:33.161472,12.50575986,.12283825,82.5942,99.5072,282.4817,64.1806,0,U,20262,999,67449,.49807262E-4,.164E-5,0
DELTA 1 R/B,1989-089B,2026-07-02T11:05:39.255360,14.50741173,.00703496,97.0633,12.5760,119.3340,241.4911,0,U,20323,999,91237,.97099873E-4,.36E-5,0
ARIANE 40 R/B,1990-005H,2026-07-02T02:58:01.317504,14.39935171,.00094116,98.2952,240.2750,214.2475,145.8108,0,U,20443,999,90927,.95130776E-4,.257E-5,0
DELTA 2 R/B(1),1990-008B,2026-07-01T22:37:59.129472,15.71224893,.00641802,35.6000,136.7735,253.2131,106.1561,0,U,20453,999,94402,.67236802E-3,.101038E-2,0
